{
    "links": {
        "self": "http://www.neowsapp.com/rest/v1/neo/3878608?api_key=iIulBulltgU6a56xZRHN4H3l9WmuAYTsLGpBGhQ2"
    },
    "id": "3878608",
    "neo_reference_id": "3878608",
    "name": "(2019 TO4)",
    "designation": "2019 TO4",
    "nasa_jpl_url": "http://ssd.jpl.nasa.gov/sbdb.cgi?sstr=3878608",
    "absolute_magnitude_h": 24.1,
    "estimated_diameter": {
        "kilometers": {
            "estimated_diameter_min": 0.040230458,
            "estimated_diameter_max": 0.0899580388
        },
        "meters": {
            "estimated_diameter_min": 40.2304579834,
            "estimated_diameter_max": 89.9580388169
        },
        "miles": {
            "estimated_diameter_min": 0.0249980399,
            "estimated_diameter_max": 0.0558973165
        },
        "feet": {
            "estimated_diameter_min": 131.9896957704,
            "estimated_diameter_max": 295.1379320721
        }
    },
    "is_potentially_hazardous_asteroid": false,
    "close_approach_data": [
        {
            "close_approach_date": "2019-10-04",
            "close_approach_date_full": "2019-Oct-04 17:01",
            "epoch_date_close_approach": 1570208460000,
            "relative_velocity": {
                "kilometers_per_second": "6.5023636547",
                "kilometers_per_hour": "23408.5091568128",
                "miles_per_hour": "14545.1372591318"
            },
            "miss_distance": {
                "astronomical": "0.2552385703",
                "lunar": "99.2878038467",
                "kilometers": "38183146.458725261",
                "miles": "23725907.0245241618"
            },
            "orbiting_body": "Earth"
        }
    ],
    "orbital_data": {
        "orbit_id": "1",
        "orbit_determination_date": "2019-10-09 10:12:07",
        "first_observation_date": "2019-10-07",
        "last_observation_date": "2019-10-09",
        "data_arc_in_days": 2,
        "observations_used": 11,
        "orbit_uncertainty": "9",
        "minimum_orbit_intersection": ".255037",
        "jupiter_tisserand_invariant": "3.470",
        "epoch_osculation": "2458764.5",
        "eccentricity": ".4460045342917052",
        "semi_major_axis": "2.244893542351659",
        "inclination": "11.51312531623531",
        "ascending_node_longitude": "208.466514235356",
        "orbital_period": "1228.547783869614",
        "perihelion_distance": "1.243660843460651",
        "perihelion_argument": "155.7239809926657",
        "aphelion_distance": "3.246126241242667",
        "perihelion_time": "2458752.946817687858",
        "mean_anomaly": "3.385416250779326",
        "mean_motion": ".2930288953565088",
        "equinox": "J2000",
        "orbit_class": {
            "orbit_class_type": "AMO",
            "orbit_class_description": "Near-Earth asteroid orbits similar to that of 1221 Amor",
            "orbit_class_range": "1.017 AU < q (perihelion) < 1.3 AU"
        }
    },
    "is_sentry_object": false
}